{
    "links": {
        "self": "http://www.neowsapp.com/rest/v1/neo/3694456?api_key=iIulBulltgU6a56xZRHN4H3l9WmuAYTsLGpBGhQ2"
    },
    "id": "3694456",
    "neo_reference_id": "3694456",
    "name": "(2014 UV56)",
    "designation": "2014 UV56",
    "nasa_jpl_url": "http://ssd.jpl.nasa.gov/sbdb.cgi?sstr=3694456",
    "absolute_magnitude_h": 23.8,
    "estimated_diameter": {
        "kilometers": {
            "estimated_diameter_min": 0.046190746,
            "estimated_diameter_max": 0.1032856481
        },
        "meters": {
            "estimated_diameter_min": 46.1907460282,
            "estimated_diameter_max": 103.2856480504
        },
        "miles": {
            "estimated_diameter_min": 0.0287015901,
            "estimated_diameter_max": 0.0641787064
        },
        "feet": {
            "estimated_diameter_min": 151.544447199,
            "estimated_diameter_max": 338.8636855496
        }
    },
    "is_potentially_hazardous_asteroid": false,
    "close_approach_data": [
        {
            "close_approach_date": "2014-10-14",
            "close_approach_date_full": "2014-Oct-14 22:02",
            "epoch_date_close_approach": 1413324120000,
            "relative_velocity": {
                "kilometers_per_second": "3.2147430157",
                "kilometers_per_hour": "11573.0748563951",
                "miles_per_hour": "7191.0586517417"
            },
            "miss_distance": {
                "astronomical": "0.292847609",
                "lunar": "113.917719901",
                "kilometers": "43809378.54099283",
                "miles": "27221885.529767854"
            },
            "orbiting_body": "Earth"
        }
    ],
    "orbital_data": {
        "orbit_id": "4",
        "orbit_determination_date": "2019-07-19 05:25:49",
        "first_observation_date": "2014-10-24",
        "last_observation_date": "2014-10-26",
        "data_arc_in_days": 2,
        "observations_used": 20,
        "orbit_uncertainty": "8",
        "minimum_orbit_intersection": ".291763",
        "jupiter_tisserand_invariant": "3.367",
        "epoch_osculation": "2456955.5",
        "eccentricity": ".4635363246745534",
        "semi_major_axis": "2.400506181276849",
        "inclination": "5.038516123754449",
        "ascending_node_longitude": "38.39285958325377",
        "orbital_period": "1358.478188297285",
        "perihelion_distance": "1.287784368649231",
        "perihelion_argument": "342.6423048366473",
        "aphelion_distance": "3.513227993904466",
        "perihelion_time": "2456943.705489996428",
        "mean_anomaly": "3.125573629274006",
        "mean_motion": ".2650024145409531",
        "equinox": "J2000",
        "orbit_class": {
            "orbit_class_type": "AMO",
            "orbit_class_description": "Near-Earth asteroid orbits similar to that of 1221 Amor",
            "orbit_class_range": "1.017 AU < q (perihelion) < 1.3 AU"
        }
    },
    "is_sentry_object": false
}